[{"OBJECT_NAME":"STARLINK-5439","OBJECT_ID":"2022-175AB","EPOCH":"2026-03-09T21:56:38.223456","MEAN_MOTION":15.08830949,"ECCENTRICITY":0.00013224,"INCLINATION":53.2182,"RA_OF_ASC_NODE":28.0943,"ARG_OF_PERICENTER":93.3813,"MEAN_ANOMALY":266.7331,"EPHEMERIS_TYPE":0,"CLASSIFICATION_TYPE":"U","NORAD_CAT_ID":54783,"ELEMENT_SET_NO":999,"REV_AT_EPOCH":18016,"BSTAR":-2.0345e-7,"MEAN_MOTION_DOT":-2.91e-6,"MEAN_MOTION_DDOT":0},{"OBJECT_NAME":"CZ-4B R\/B","OBJECT_ID":"2006-046C","EPOCH":"2026-03-09T16:12:15.627168","MEAN_MOTION":15.16904341,"ECCENTRICITY":0.003169,"INCLINATION":97.5596,"RA_OF_ASC_NODE":113.5843,"ARG_OF_PERICENTER":267.3889,"MEAN_ANOMALY":92.3716,"EPHEMERIS_TYPE":0,"CLASSIFICATION_TYPE":"U","NORAD_CAT_ID":29507,"ELEMENT_SET_NO":999,"REV_AT_EPOCH":6004,"BSTAR":0.0003074379,"MEAN_MOTION_DOT":6.066e-5,"MEAN_MOTION_DDOT":0}]
